start=new Date('2022-11-06T00:00:00.000Z').valueOf();
sats=[{"PERIOD":"95.593","MEAN_MOTION_DOT":"-0.00003381","ELEMENT_SET_NO":"999","EPHEMERIS_TYPE":"0","INCLINATION":"53.0535","NORAD_CAT_ID":"47356","DECAY_DATE":null,"EPOCH":"2022-11-05T17:10:37.396704","TLE_LINE1":"1 47356U 21005H   22309.71571061 -.00003381  00000-0 -20824-3 0  9993","APOAPSIS":"548.218","SITE":"AFETR","CLASSIFICATION_TYPE":"U","PERIAPSIS":"546.271","REF_FRAME":"TEME","COUNTRY_CODE":"US","FILE":"3646512","LAUNCH_DATE":"2021-01-20","OBJECT_ID":"2021-005H","OBJECT_TYPE":"PAYLOAD","CENTER_NAME":"EARTH","SEMIMAJOR_AXIS":"6925.379","RA_OF_ASC_NODE":"108.2927","MEAN_ELEMENT_THEORY":"SGP4","MEAN_ANOMALY":"252.8856","RCS_SIZE":"LARGE","TIME_SYSTEM":"UTC","GP_ID":"217017461","MEAN_MOTION":"15.06389962","REV_AT_EPOCH":"9958","MEAN_MOTION_DDOT":"0.0000000000000","ECCENTRICITY":"0.00014060","BSTAR":"-0.00020824000000","TLE_LINE2":"2 47356  53.0535 108.2927 0001406 107.2287 252.8856 15.06389962 99581","OBJECT_NAME":"STARLINK-2049","ARG_OF_PERICENTER":"107.2287"},{"OBJECT_TYPE":"PAYLOAD","OBJECT_ID":"2021-005J","LAUNCH_DATE":"2021-01-20","FILE":"3646512","REF_FRAME":"TEME","COUNTRY_CODE":"US","PERIAPSIS":"546.664","ARG_OF_PERICENTER":"91.8468","BSTAR":"-0.00023952000000","TLE_LINE2":"2 47357  53.0575 137.9705 0000867  91.8468 268.2620 15.06383513 99179","OBJECT_NAME":"STARLINK-2050","ECCENTRICITY":"0.00008670","REV_AT_EPOCH":"9917","MEAN_MOTION_DDOT":"0.0000000000000","GP_ID":"217018211","MEAN_MOTION":"15.06383513","TIME_SYSTEM":"UTC","RCS_SIZE":"LARGE","RA_OF_ASC_NODE":"137.9705","MEAN_ELEMENT_THEORY":"SGP4","MEAN_ANOMALY":"268.2620","CENTER_NAME":"EARTH","SEMIMAJOR_AXIS":"6925.399","EPOCH":"2022-11-05T18:58:06.716064","NORAD_CAT_ID":"47357","DECAY_DATE":null,"INCLINATION":"53.0575","EPHEMERIS_TYPE":"0","ELEMENT_SET_NO":"999","MEAN_MOTION_DOT":"-0.00003845","PERIOD":"95.593","CLASSIFICATION_TYPE":"U","APOAPSIS":"547.865","TLE_LINE1":"1 47357U 21005J   22309.79035551 -.00003845  00000-0 -23952-3 0  9991","SITE":"AFETR"},{"PERIOD":"95.592","EPHEMERIS_TYPE":"0","ELEMENT_SET_NO":"999","MEAN_MOTION_DOT":"-0.00000086","INCLINATION":"53.0551","EPOCH":"2022-11-05T17:25:11.081280","DECAY_DATE":null,"NORAD_CAT_ID":"47358","TLE_LINE1":"1 47358U 21005K   22309.72582270 -.00000086  00000-0  13146-4 0  9998","SITE":"AFETR","APOAPSIS":"548.240","CLASSIFICATION_TYPE":"U","COUNTRY_CODE":"US","REF_FRAME":"TEME","PERIAPSIS":"546.221","LAUNCH_DATE":"2021-01-20","FILE":"3646512","OBJECT_ID":"2021-005K","OBJECT_TYPE":"PAYLOAD","MEAN_ANOMALY":"246.4727","RA_OF_ASC_NODE":"108.2530","MEAN_ELEMENT_THEORY":"SGP4","SEMIMAJOR_AXIS":"6925.365","CENTER_NAME":"EARTH","MEAN_MOTION":"15.06394477","GP_ID":"217016959","TIME_SYSTEM":"UTC","RCS_SIZE":"LARGE","ECCENTRICITY":"0.00014580","MEAN_MOTION_DDOT":"0.0000000000000","REV_AT_EPOCH":"9958","ARG_OF_PERICENTER":"113.6415","OBJECT_NAME":"STARLINK-2055","TLE_LINE2":"2 47358  53.0551 108.2530 0001458 113.6415 246.4727 15.06394477 99585","BSTAR":"0.00001314600000"},{"CLASSIFICATION_TYPE":"U","APOAPSIS":"548.219","TLE_LINE1":"1 47359U 21005L   22309.80372035 -.00001301  00000-0 -68502-4 0  9992","SITE":"AFETR","INCLINATION":"53.0540","DECAY_DATE":null,"NORAD_CAT_ID":"47359","EPOCH":"2022-11-05T19:17:21.438240","PERIOD":"95.593","MEAN_MOTION_DOT":"-0.00001301","EPHEMERIS_TYPE":"0","ELEMENT_SET_NO":"999","MEAN_MOTION_DDOT":"0.0000000000000","REV_AT_EPOCH":"9924","ECCENTRICITY":"0.00014120","OBJECT_NAME":"STARLINK-2069","TLE_LINE2":"2 47359  53.0540 132.8958 0001412  91.6972 268.4179 15.06390958 99242","BSTAR":"-0.00006850200000","ARG_OF_PERICENTER":"91.6972","SEMIMAJOR_AXIS":"6925.376","CENTER_NAME":"EARTH","MEAN_ANOMALY":"268.4179","MEAN_ELEMENT_THEORY":"SGP4","RA_OF_ASC_NODE":"132.8958","TIME_SYSTEM":"UTC","RCS_SIZE":"LARGE","GP_ID":"217017209","MEAN_MOTION":"15.06390958","OBJECT_ID":"2021-005L","OBJECT_TYPE":"PAYLOAD","PERIAPSIS":"546.263","COUNTRY_CODE":"US","REF_FRAME":"TEME","FILE":"3646512","LAUNCH_DATE":"2021-01-20"},{"EPHEMERIS_TYPE":"0","ELEMENT_SET_NO":"999","MEAN_MOTION_DOT":"0.00000872","PERIOD":"95.593","EPOCH":"2022-11-05T14:40:01.090272","NORAD_CAT_ID":"47360","DECAY_DATE":null,"INCLINATION":"53.0572","TLE_LINE1":"1 47360U 21005M   22309.61112373  .00000872  00000-0  77474-4 0  9998","SITE":"AFETR","APOAPSIS":"549.046","CLASSIFICATION_TYPE":"U","LAUNCH_DATE":"2021-01-20","FILE":"3646512","REF_FRAME":"TEME","COUNTRY_CODE":"US","PERIAPSIS":"545.460","OBJECT_TYPE":"PAYLOAD","OBJECT_ID":"2021-005M","MEAN_MOTION":"15.06387081","GP_ID":"217017961","RCS_SIZE":"LARGE","TIME_SYSTEM":"UTC","RA_OF_ASC_NODE":"103.7708","MEAN_ELEMENT_THEORY":"SGP4","MEAN_ANOMALY":"233.3627","CENTER_NAME":"EARTH","SEMIMAJOR_AXIS":"6925.388","ARG_OF_PERICENTER":"126.7600","TLE_LINE2":"2 47360  53.0572 103.7708 0002589 126.7600 233.3627 15.06387081 99649","BSTAR":"0.00007747400000","OBJECT_NAME":"STARLINK-2070","ECCENTRICITY":"0.00025890","REV_AT_EPOCH":"9964","MEAN_MOTION_DDOT":"0.0000000000000"},{"ECCENTRICITY":"0.00013070","MEAN_MOTION_DDOT":"0.0000000000000","REV_AT_EPOCH":"9958","ARG_OF_PERICENTER":"115.0740","OBJECT_NAME":"STARLINK-2071","BSTAR":"-0.00004311500000","TLE_LINE2":"2 47361  53.0546 108.2214 0001307 115.0740 245.0385 15.06393567 99586","MEAN_ANOMALY":"245.0385","MEAN_ELEMENT_THEORY":"SGP4","RA_OF_ASC_NODE":"108.2214","SEMIMAJOR_AXIS":"6925.368","CENTER_NAME":"EARTH","MEAN_MOTION":"15.06393567","GP_ID":"217017712","RCS_SIZE":"LARGE","TIME_SYSTEM":"UTC","OBJECT_ID":"2021-005N","OBJECT_TYPE":"PAYLOAD","COUNTRY_CODE":"US","REF_FRAME":"TEME","PERIAPSIS":"546.328","LAUNCH_DATE":"2021-01-20","FILE":"3646512","CLASSIFICATION_TYPE":"U","TLE_LINE1":"1 47361U 21005N   22309.73414195 -.00000923  00000-0 -43115-4 0  9993","APOAPSIS":"548.138","SITE":"AFETR","INCLINATION":"53.0546","EPOCH":"2022-11-05T17:37:09.864480","DECAY_DATE":null,"NORAD_CAT_ID":"47361","PERIOD":"95.593","EPHEMERIS_TYPE":"0","ELEMENT_SET_NO":"999","MEAN_MOTION_DOT":"-0.00000923"},{"BSTAR":"0.00003403100000","TLE_LINE2":"2 47362  53.0550 138.9131 0001389  89.7355 270.3793 15.06388624 99143","OBJECT_NAME":"STARLINK-2076","ARG_OF_PERICENTER":"89.7355","REV_AT_EPOCH":"9914","MEAN_MOTION_DDOT":"0.0000000000000","ECCENTRICITY":"0.00013890","TIME_SYSTEM":"UTC","RCS_SIZE":"LARGE","MEAN_MOTION":"15.06388624","GP_ID":"216961721","CENTER_NAME":"EARTH","SEMIMAJOR_AXIS":"6925.383","RA_OF_ASC_NODE":"138.9131","MEAN_ELEMENT_THEORY":"SGP4","MEAN_ANOMALY":"270.3793","OBJECT_TYPE":"PAYLOAD","OBJECT_ID":"2021-005P","FILE":"3645109","LAUNCH_DATE":"2021-01-20","PERIAPSIS":"546.286","REF_FRAME":"TEME","COUNTRY_CODE":"US","CLASSIFICATION_TYPE":"U","APOAPSIS":"548.210","TLE_LINE1":"1 47362U 21005P   22309.58026124  .00000225  00000-0  34031-4 0  9998","SITE":"AFETR","NORAD_CAT_ID":"47362","DECAY_DATE":null,"EPOCH":"2022-11-05T13:55:34.571136","INCLINATION":"53.0550","MEAN_MOTION_DOT":"0.00000225","ELEMENT_SET_NO":"999","EPHEMERIS_TYPE":"0","PERIOD":"95.593"},{"APOAPSIS":"548.200","TLE_LINE1":"1 47363U 21005Q   22309.65028906 -.00001416  00000-0 -76191-4 0  9995","SITE":"AFETR","CLASSIFICATION_TYPE":"U","PERIOD":"95.593","MEAN_MOTION_DOT":"-0.00001416","ELEMENT_SET_NO":"999","EPHEMERIS_TYPE":"0","INCLINATION":"53.0545","DECAY_DATE":null,"NORAD_CAT_ID":"47363","EPOCH":"2022-11-05T15:36:24.974784","SEMIMAJOR_AXIS":"6925.368","CENTER_NAME":"EARTH","MEAN_ANOMALY":"267.3621","MEAN_ELEMENT_THEORY":"SGP4","RA_OF_ASC_NODE":"138.5766","TIME_SYSTEM":"UTC","RCS_SIZE":"LARGE","MEAN_MOTION":"15.06393805","GP_ID":"217016710","MEAN_MOTION_DDOT":"0.0000000000000","REV_AT_EPOCH":"9915","ECCENTRICITY":"0.00013970","OBJECT_NAME":"STARLINK-2077","TLE_LINE2":"2 47363  53.0545 138.5766 0001397  92.7528 267.3621 15.06393805 99157","BSTAR":"-0.00007619100000","ARG_OF_PERICENTER":"92.7528","PERIAPSIS":"546.265","COUNTRY_CODE":"US","REF_FRAME":"TEME","FILE":"3646512","LAUNCH_DATE":"2021-01-20","OBJECT_ID":"2021-005Q","OBJECT_TYPE":"PAYLOAD"},{"FILE":"3646512","LAUNCH_DATE":"2021-01-20","PERIAPSIS":"546.256","COUNTRY_CODE":"US","REF_FRAME":"TEME","OBJECT_TYPE":"PAYLOAD","OBJECT_ID":"2021-005T","TIME_SYSTEM":"UTC","RCS_SIZE":"LARGE","GP_ID":"217017462","MEAN_MOTION":"15.06390564","SEMIMAJOR_AXIS":"6925.377","CENTER_NAME":"EARTH","MEAN_ANOMALY":"248.5976","MEAN_ELEMENT_THEORY":"SGP4","RA_OF_ASC_NODE":"137.8874","OBJECT_NAME":"STARLINK-2081","TLE_LINE2":"2 47366  53.0550 137.8874 0001424 111.5165 248.5976 15.06390564 99171","BSTAR":"-0.00008844000000","ARG_OF_PERICENTER":"111.5165","MEAN_MOTION_DDOT":"0.0000000000000","REV_AT_EPOCH":"9917","ECCENTRICITY":"0.00014240","MEAN_MOTION_DOT":"-0.00001598","EPHEMERIS_TYPE":"0","ELEMENT_SET_NO":"999","PERIOD":"95.593","DECAY_DATE":null,"NORAD_CAT_ID":"47366","EPOCH":"2022-11-05T19:24:39.329856","INCLINATION":"53.0550","TLE_LINE1":"1 47366U 21005T   22309.80878854 -.00001598  00000-0 -88440-4 0  9991","APOAPSIS":"548.229","SITE":"AFETR","CLASSIFICATION_TYPE":"U"},{"OBJECT_ID":"2021-005U","OBJECT_TYPE":"PAYLOAD","PERIAPSIS":"546.329","REF_FRAME":"TEME","COUNTRY_CODE":"US","FILE":"3645109","LAUNCH_DATE":"2021-01-20","REV_AT_EPOCH":"9914","MEAN_MOTION_DDOT":"0.0000000000000","ECCENTRICITY":"0.00013000","TLE_LINE2":"2 47367  53.0532 138.9391 0001300 102.2621 257.8513 15.06395000 99142","BSTAR":"-0.00010627000000","OBJECT_NAME":"STARLINK-2082","ARG_OF_PERICENTER":"102.2621","CENTER_NAME":"EARTH","SEMIMAJOR_AXIS":"6925.364","RA_OF_ASC_NODE":"138.9391","MEAN_ELEMENT_THEORY":"SGP4","MEAN_ANOMALY":"257.8513","RCS_SIZE":"LARGE","TIME_SYSTEM":"UTC","GP_ID":"216960970","MEAN_MOTION":"15.06395000","INCLINATION":"53.0532","NORAD_CAT_ID":"47367","DECAY_DATE":null,"EPOCH":"2022-11-05T13:39:39.119328","PERIOD":"95.592","MEAN_MOTION_DOT":"-0.00001864","ELEMENT_SET_NO":"999","EPHEMERIS_TYPE":"0","CLASSIFICATION_TYPE":"U","SITE":"AFETR","TLE_LINE1":"1 47367U 21005U   22309.56920277 -.00001864  00000-0 -10627-3 0  9999","APOAPSIS":"548.129"}];
